     2.10           NAVIGATION DATA                         RINEX VERSION / TYPE
GR50 V4.81          SWISSTOPO           2025 02 11 23:59    PGM / RUN BY / DATE 
    2.0489D-08  0.0000D+00 -1.1921D-07  1.1921D-07          ION ALPHA           
    1.3107D+05 -6.5536D+04  6.5536D+04 -5.8982D+05          ION BETA            
   -1.862645149231D-09-3.552713678801D-15   405504     2353 DELTA-UTC: A0,A1,T,W
    18                                                      LEAP SECONDS        
                                                            END OF HEADER       
12 25 02 12 12 00  0.0-5.697770975530D-04-2.046363078989D-12 0.000000000000D+00
    7.200000000000D+01 6.406250000000D+00 5.064139513166D-09 8.893620137263D-01
    1.769512891769D-07 9.031797526404D-03 4.613772034645D-06 5.153733255386D+03
    3.024000000000D+05-1.564621925354D-07 1.643610579915D+00-1.676380634308D-08
    9.603122034636D-01 2.920625000000D+02 1.477286794810D+00-8.441780205459D-09
   -3.785871982478D-11 1.000000000000D+00 2.353000000000D+03 0.000000000000D+00
    2.000000000000D+00 0.000000000000D+00-1.257285475731D-08 7.200000000000D+01
    2.952000000000D+05 0.000000000000D+00
24 25 02 12 12 00  0.0-4.528532736003D-04 4.888534022029D-12 0.000000000000D+00
    8.700000000000D+01-1.934375000000D+01 4.839487298357D-09 2.531968756810D+00
   -1.119449734688D-06 1.648328069132D-02 1.159310340881D-05 5.153692756653D+03
    3.024000000000D+05 5.587935447693D-08 4.254652721421D-01-2.887099981308D-07
    9.346123901061D-01 1.385312500000D+02 1.048695439357D+00-7.793538917893D-09
    4.225175995540D-10 1.000000000000D+00 2.353000000000D+03 0.000000000000D+00
    2.000000000000D+00 0.000000000000D+00 2.328306436539D-09 8.700000000000D+01
    2.952000000000D+05 0.000000000000D+00
11 25 02 12 12 00  0.0-7.475921884179D-04 2.273736754432D-12 0.000000000000D+00
    2.000000000000D+00 1.210312500000D+02 4.010167039554D-09-2.757413018692D+00
    6.375834345818D-06 1.716814935207D-03 9.769573807716D-06 5.153615270615D+03
    3.024000000000D+05-1.303851604462D-08-2.568564874100D+00-1.490116119385D-08
    9.660729583479D-01 1.925625000000D+02-2.329766202148D+00-7.805682280855D-09
    2.792973481413D-10 1.000000000000D+00 2.353000000000D+03 0.000000000000D+00
    2.000000000000D+00 0.000000000000D+00-8.847564458847D-09 7.700000000000D+02
    2.952000000000D+05 0.000000000000D+00
 6 25 02 12 12 00  0.0-1.825867220759D-04-2.501110429876D-11 0.000000000000D+00
    2.600000000000D+01 1.225000000000D+02 3.487645274425D-09 2.395776228713D+00
    6.495043635368D-06 3.489070804790D-03 1.066364347935D-05 5.153791473389D+03
    3.024000000000D+05 5.587935447693D-09-2.595804701319D+00 7.450580596924D-09
    9.893952899080D-01 1.881562500000D+02-6.810578471930D-01-7.538885453411D-09
    2.153661137202D-10 1.000000000000D+00 2.353000000000D+03 0.000000000000D+00
    2.000000000000D+00 0.000000000000D+00 3.725290298462D-09 2.600000000000D+01
    2.952000000000D+05 0.000000000000D+00
19 25 02 12 12 00  0.0 5.971663631499D-04 4.320099833421D-12 0.000000000000D+00
    6.700000000000D+01-2.053125000000D+01 4.383754029523D-09-1.569992857076D-02
   -1.236796379089D-06 1.014164148364D-02 1.077726483345D-05 5.153609601974D+03
    3.024000000000D+05 1.750886440277D-07 2.725703205782D+00-1.415610313416D-07
    9.643153544395D-01 1.785312500000D+02 2.713416763945D+00-8.003904823334D-09
   -7.146726261264D-10 1.000000000000D+00 2.353000000000D+03 0.000000000000D+00
    2.000000000000D+00 0.000000000000D+00-1.536682248116D-08 6.700000000000D+01
    2.952000000000D+05 0.000000000000D+00
25 25 02 12 12 00  0.0 4.951148293912D-04-6.821210263297D-13 0.000000000000D+00
    9.400000000000D+01 1.531250000000D+01 5.385581473943D-09 7.380278153752D-01
    8.568167686462D-07 1.237783848774D-02 4.660338163376D-06 5.153661239624D+03
    3.024000000000D+05-1.266598701477D-07 1.554037533730D+00 9.126961231232D-08
    9.484466797312D-01 2.843750000000D+02 1.115850232967D+00-8.687861884320D-09
   -3.214419607765D-12 1.000000000000D+00 2.353000000000D+03 0.000000000000D+00
    2.000000000000D+00 0.000000000000D+00 5.587935447693D-09 9.400000000000D+01
    2.952000000000D+05 0.000000000000D+00
28 25 02 12 12 00  0.0-5.578398704529D-04-8.526512829121D-12 0.000000000000D+00
    1.600000000000D+01-1.343750000000D+00 4.418041172006D-09 7.526197561252D-01
    7.636845111847D-08 3.742052940652D-04 1.147948205471D-05 5.153558696747D+03
    3.024000000000D+05-1.490116119385D-08 4.970073439051D-01 3.725290298462D-09
    9.618191144153D-01 1.591250000000D+02 1.070511568018D+00-7.845326789351D-09
    4.700195782020D-10 1.000000000000D+00 2.353000000000D+03 0.000000000000D+00
    2.000000000000D+00 0.000000000000D+00-9.313225746155D-09 2.720000000000D+02
    2.955000000000D+05 0.000000000000D+00
32 25 02 12 11 59 44.0-5.231634713709D-04 7.844391802792D-12 0.000000000000D+00
    1.000000000000D+01-1.170937500000D+02 4.473400620806D-09-1.254682937598D+00
   -5.930662155151D-06 8.444892126136D-03 7.640570402145D-06 5.153789875031D+03
    3.023840000000D+05 1.098960638046D-07-5.295987770805D-01 1.695007085800D-07
    9.643058425461D-01 2.316250000000D+02-2.087068168869D+00-8.049978171046D-09
   -2.464388365953D-10 1.000000000000D+00 2.353000000000D+03 0.000000000000D+00
    2.000000000000D+00 0.000000000000D+00 9.313225746155D-10 1.000000000000D+01
    2.985000000000D+05 0.000000000000D+00
31 25 02 12 12 00  0.0-2.156724222004D-04 9.094947017729D-13 0.000000000000D+00
    8.200000000000D+01 6.968750000000D+00 4.632692970257D-09 6.174492211356D-01
    5.997717380524D-07 1.065300067421D-02 1.122616231441D-05 5.153625017166D+03
    3.024000000000D+05-1.378357410431D-07 5.496681903322D-01 1.378357410431D-07
    9.546309391590D-01 1.612500000000D+02 8.009935986556D-01-8.079265105250D-09
    4.146601294017D-10 1.000000000000D+00 2.353000000000D+03 0.000000000000D+00
    2.000000000000D+00 0.000000000000D+00-1.350417733192D-08 8.200000000000D+01
    2.992200000000D+05 0.000000000000D+00
28 25 02 12 13 14 40.0-5.578789860010D-04-8.526512829121D-12 0.000000000000D+00
    1.700000000000D+01-2.906250000000D+00 4.429470219500D-09 1.405631209382D+00
   -8.940696716309D-08 3.742257831618D-04 1.150555908680D-05 5.153559013367D+03
    3.068800000000D+05-3.539025783539D-08 4.969721387815D-01-3.725290298462D-09
    9.618212488128D-01 1.595000000000D+02 1.070989424357D+00-7.835326372794D-09
    4.814486256963D-10 1.000000000000D+00 2.353000000000D+03 0.000000000000D+00
    2.000000000000D+00 0.000000000000D+00-9.313225746155D-09 2.730000000000D+02
    2.997000000000D+05 0.000000000000D+00
24 25 02 12 11 59 44.0-4.528546705842D-04 4.888534022029D-12 0.000000000000D+00
    1.200000000000D+01-1.934375000000D+01 4.839487298357D-09 2.529635412714D+00
   -1.119449734688D-06 1.648328593001D-02 1.159310340881D-05 5.153692752838D+03
    3.023840000000D+05 5.587935447693D-08 4.254653803980D-01-2.887099981308D-07
    9.346123842544D-01 1.385312500000D+02 1.048695114589D+00-7.793896075627D-09
    4.225175995540D-10 1.000000000000D+00 2.353000000000D+03 0.000000000000D+00
    2.000000000000D+00 0.000000000000D+00 2.328306436539D-09 1.200000000000D+01
    3.008700000000D+05 0.000000000000D+00
20 25 02 12 12 00  0.0 3.663650713861D-04-3.410605131648D-13 0.000000000000D+00
    6.700000000000D+01 6.512500000000D+01 4.796985527988D-09 2.698963263522D+00
    3.365799784660D-06 3.725804155692D-03 1.454725861549D-06 5.153699987411D+03
    3.024000000000D+05-5.587935447693D-08-1.748216490360D+00-5.029141902924D-08
    9.569682345967D-01 3.475312500000D+02-2.310228126595D+00-8.472138612865D-09
    2.775115594704D-10 1.000000000000D+00 2.353000000000D+03 0.000000000000D+00
    2.000000000000D+00 0.000000000000D+00-8.381903171539D-09 6.700000000000D+01
    3.016800000000D+05 0.000000000000D+00
26 25 02 12 12 00  0.0-8.804304525256D-05-1.671196514508D-11 0.000000000000D+00
    4.800000000000D+01 1.815625000000D+01 5.853458105740D-09-7.704763375464D-02
    1.039355993271D-06 9.867094107904D-03 4.062429070473D-06 5.153765933990D+03
    3.024000000000D+05 4.284083843231D-08 1.486643751971D+00 1.061707735062D-07
    9.292392046456D-01 2.812187500000D+02 6.164780439507D-01-8.878226956646D-09
    9.714690370133D-11 1.000000000000D+00 2.353000000000D+03 0.000000000000D+00
    2.800000000000D+00 0.000000000000D+00 6.519258022308D-09 4.800000000000D+01
    3.022800000000D+05 0.000000000000D+00
32 25 02 12 13 59 44.0-5.231071263552D-04 7.844391802792D-12 0.000000000000D+00
    4.800000000000D+01-1.121875000000D+02 4.435541900981D-09-2.044253387245D-01
   -5.869194865227D-06 8.446012623608D-03 7.346272468567D-06 5.153793060303D+03
    3.095840000000D+05-8.754432201385D-08-5.296577063466D-01 1.061707735062D-07
    9.643033994729D-01 2.429375000000D+02-2.087217358718D+00-8.219270937054D-09
   -2.310810540249D-10 1.000000000000D+00 2.353000000000D+03 0.000000000000D+00
    2.000000000000D+00 0.000000000000D+00 9.313225746155D-10 4.800000000000D+01
    3.024000000000D+05 0.000000000000D+00
20 25 02 12 14 00  0.0 3.663627430797D-04-3.410605131648D-13 0.000000000000D+00
    9.600000000000D+01 7.131250000000D+01 4.817700676571D-09-2.534118686089D+00
    3.740191459656D-06 3.725044545718D-03 1.356005668640D-06 5.153701375961D+03
    3.096000000000D+05 1.490116119385D-08-1.748277956326D+00-7.823109626770D-08
    9.569702534237D-01 3.504687500000D+02-2.310165228432D+00-8.516426171906D-09
    3.246563803842D-10 1.000000000000D+00 2.353000000000D+03 0.000000000000D+00
    2.000000000000D+00 0.000000000000D+00-8.381903171539D-09 9.600000000000D+01
    3.024000000000D+05 0.000000000000D+00
